{"type": "FeatureCollection", "features": [{"type": "Feature", "properties": {"norad_id": 50032, "name": "COSMOS 1408 DEB", "group": "cosmos-1408-debris", "lat": 63.375899190109536, "lon": -130.95008418366731, "alt_km": 427.60901115985325, "timestamp": "2025-12-07T05:38:10.174791+00:00", "meta": {"OBJECT_NAME": "COSMOS 1408 DEB", "OBJECT_ID": "1982-092RU", "EPOCH": "2025-12-06T15:09:08.436960", "MEAN_MOTION": 15.45601684, "ECCENTRICITY": 0.00147727, "INCLINATION": 82.5648, "RA_OF_ASC_NODE": 64.7691, "ARG_OF_PERICENTER": 232.3671, "MEAN_ANOMALY": 127.6239, "EPHEMERIS_TYPE": 0, "CLASSIFICATION_TYPE": "U", "NORAD_CAT_ID": 50032, "ELEMENT_SET_NO": 999, "REV_AT_EPOCH": 22509, "BSTAR": 0.00017941918, "MEAN_MOTION_DOT": 8.706e-05, "MEAN_MOTION_DDOT": 0}, "tle": {"line1": "1 50032U 82092RU  25340.63134765  .00008706  00000+0  17942-3 0  9996", "line2": "2 50032  82.5648  64.7691 0014772 232.3671 127.6239 15.45601684225091"}}, "geometry": {"type": "Point", "coordinates": [-130.95008418366731, 63.375899190109536]}}, {"type": "Feature", "properties": {"norad_id": 50058, "name": "COSMOS 1408 DEB", "group": "cosmos-1408-debris", "lat": -42.323257752708756, "lon": 68.31607132246704, "alt_km": 394.30882230162206, "timestamp": "2025-12-07T05:38:10.174811+00:00", "meta": {"OBJECT_NAME": "COSMOS 1408 DEB", "OBJECT_ID": "1982-092SW", "EPOCH": "2025-12-06T14:27:35.068608", "MEAN_MOTION": 15.63568308, "ECCENTRICITY": 0.00163084, "INCLINATION": 82.6135, "RA_OF_ASC_NODE": 75.7623, "ARG_OF_PERICENTER": 120.6235, "MEAN_ANOMALY": 239.6634, "EPHEMERIS_TYPE": 0, "CLASSIFICATION_TYPE": "U", "NORAD_CAT_ID": 50058, "ELEMENT_SET_NO": 999, "REV_AT_EPOCH": 22708, "BSTAR": 0.00051315474, "MEAN_MOTION_DOT": 0.00048088, "MEAN_MOTION_DDOT": 0}, "tle": {"line1": "1 50058U 82092SW  25340.60248922  .00048088  00000+0  51315-3 0  9991", "line2": "2 50058  82.6135  75.7623 0016308 120.6235 239.6634 15.63568308227089"}}, "geometry": {"type": "Point", "coordinates": [68.31607132246704, -42.323257752708756]}}, {"type": "Feature", "properties": {"norad_id": 50404, "name": "COSMOS 1408 DEB", "group": "cosmos-1408-debris", "lat": -8.915512789871928, "lon": -140.5670211113185, "alt_km": 613.5019689703649, "timestamp": "2025-12-07T05:38:10.174824+00:00", "meta": {"OBJECT_NAME": "COSMOS 1408 DEB", "OBJECT_ID": "1982-092ADS", "EPOCH": "2025-12-06T02:41:05.955072", "MEAN_MOTION": 15.12434812, "ECCENTRICITY": 0.01747261, "INCLINATION": 82.2047, "RA_OF_ASC_NODE": 221.8118, "ARG_OF_PERICENTER": 221.7921, "MEAN_ANOMALY": 136.9859, "EPHEMERIS_TYPE": 0, "CLASSIFICATION_TYPE": "U", "NORAD_CAT_ID": 50404, "ELEMENT_SET_NO": 999, "REV_AT_EPOCH": 21093, "BSTAR": 0.0038004271, "MEAN_MOTION_DOT": 0.00097112, "MEAN_MOTION_DDOT": 0}, "tle": {"line1": "1 50404U 82092ADS 25340.11187448  .00097112  00000+0  38004-2 0  9998", "line2": "2 50404  82.2047 221.8118 0174726 221.7921 136.9859 15.12434812210939"}}, "geometry": {"type": "Point", "coordinates": [-140.5670211113185, -8.915512789871928]}}, {"type": "Feature", "properties": {"norad_id": 50621, "name": "COSMOS 1408 DEB", "group": "cosmos-1408-debris", "lat": 59.07129097055734, "lon": -112.66565252104094, "alt_km": 381.0530871886076, "timestamp": "2025-12-07T05:38:10.174835+00:00", "meta": {"OBJECT_NAME": "COSMOS 1408 DEB", "OBJECT_ID": "1982-092ALR", "EPOCH": "2025-12-06T05:58:21.140256", "MEAN_MOTION": 15.56160395, "ECCENTRICITY": 0.00287722, "INCLINATION": 82.5723, "RA_OF_ASC_NODE": 80.9361, "ARG_OF_PERICENTER": 176.4358, "MEAN_ANOMALY": 183.7108, "EPHEMERIS_TYPE": 0, "CLASSIFICATION_TYPE": "U", "NORAD_CAT_ID": 50621, "ELEMENT_SET_NO": 999, "REV_AT_EPOCH": 22149, "BSTAR": 0.00059401028, "MEAN_MOTION_DOT": 0.00042512, "MEAN_MOTION_DDOT": 0}, "tle": {"line1": "1 50621U 82092ALR 25340.24885579  .00042512  00000+0  59401-3 0  9992", "line2": "2 50621  82.5723  80.9361 0028772 176.4358 183.7108 15.56160395221497"}}, "geometry": {"type": "Point", "coordinates": [-112.66565252104094, 59.07129097055734]}}]}